[{"OBJECT_NAME":"ESEO","OBJECT_ID":"2018-099AL","EPOCH":"2026-03-09T15:43:37.559712","MEAN_MOTION":15.03914518,"ECCENTRICITY":0.00110626,"INCLINATION":97.4113,"RA_OF_ASC_NODE":110.2601,"ARG_OF_PERICENTER":317.6,"MEAN_ANOMALY":42.4371,"EPHEMERIS_TYPE":0,"CLASSIFICATION_TYPE":"U","NORAD_CAT_ID":43792,"ELEMENT_SET_NO":999,"REV_AT_EPOCH":39684,"BSTAR":0.00020934561,"MEAN_MOTION_DOT":2.831e-5,"MEAN_MOTION_DDOT":0},{"OBJECT_NAME":"STARLINK-34926","OBJECT_ID":"2025-175W","EPOCH":"2026-03-09T14:43:25.355424","MEAN_MOTION":15.05656828,"ECCENTRICITY":0.000305,"INCLINATION":97.602,"RA_OF_ASC_NODE":302.6561,"ARG_OF_PERICENTER":98.7357,"MEAN_ANOMALY":261.4215,"EPHEMERIS_TYPE":0,"CLASSIFICATION_TYPE":"U","NORAD_CAT_ID":65194,"ELEMENT_SET_NO":999,"REV_AT_EPOCH":3260,"BSTAR":0.00051926,"MEAN_MOTION_DOT":7.441e-5,"MEAN_MOTION_DDOT":0}]
